NORAD_CAT_ID,OBJECT_NAME,OBJECT_TYPE,EPOCH,MEAN_MOTION,ECCENTRICITY,INCLINATION,RA_OF_ASC_NODE,ARG_OF_PERICENTER,MEAN_ANOMALY,BSTAR,MEAN_MOTION_DOT,MEAN_MOTION_DDOT,TLE_LINE0,TLE_LINE1,TLE_LINE2,SEMIMAJOR_AXIS,PERIOD,APOGEE,PERIGEE,DECAYED
52270.0,STARLINK-3804,PAYLOAD,2023-02-16 11:32:47,15.08882515,0.0001291,53.2158,84.4959,92.8039,267.3101,0.0018711,0.00029651,0.0,0 STARLINK-3804,1 52270U 22041K   23047.48110896  .00029651  00000-0  18711-2 0  9991,2 52270  53.2158  84.4959 0001291  92.8039 267.3101 15.08882515 46918,6917.75,95.435,540.509,538.722,0.0
52270.0,STARLINK-3804,PAYLOAD,2023-02-16 19:29:44,15.08840054,0.0001855,53.2152,83.0088,71.158,288.9613,0.00033281,5.013e-05,0.0,0 STARLINK-3804,1 52270U 22041K   23047.81231802  .00005013  00000-0  33281-3 0  9995,2 52270  53.2152  83.0088 0001855  71.1580 288.9613 15.08840054 46961,6917.88,95.438,541.028,538.462,0.0
52270.0,STARLINK-3804,PAYLOAD,2023-02-17 05:02:03,15.0881589,0.0001354,53.2158,81.2233,81.7623,278.3523,-0.00034726,-5.807e-05,0.0,0 STARLINK-3804,1 52270U 22041K   23048.20976458 -.00005807  00000-0 -34726-3 0  9990,2 52270  53.2158  81.2233 0001354  81.7623 278.3523 15.08815890 47029,6917.954,95.439,540.756,538.882,0.0
52270.0,STARLINK-3804,PAYLOAD,2023-02-17 08:12:50,15.08810149,0.0001316,53.2158,80.629,74.7273,285.3865,0.0010785,0.00016904,0.0,0 STARLINK-3804,1 52270U 22041K   23048.34224930  .00016904  00000-0  10785-2 0  9992,2 52270  53.2158  80.6290 0001316  74.7273 285.3865 15.08810149 45832,6917.972,95.439,540.747,538.926,0.0
52270.0,STARLINK-3804,PAYLOAD,2023-02-17 19:20:32,15.08824531,0.0001547,53.2155,78.5468,72.5307,287.5854,0.0012251,0.00019255,0.0,0 STARLINK-3804,1 52270U 22041K   23048.80593665  .00019255  00000-0  12251-2 0  9999,2 52270  53.2155  78.5468 0001547  72.5307 287.5854 15.08824531 45902,6917.928,95.439,540.863,538.722,0.0
52270.0,STARLINK-3804,PAYLOAD,2023-02-18 12:49:47,15.08853552,0.000159,53.2154,75.2758,72.455,287.6616,0.0014076,0.00022193,0.0,0 STARLINK-3804,1 52270U 22041K   23049.53457707  .00022193  00000-0  14076-2 0  9998,2 52270  53.2154  75.2758 0001590  72.4550 287.6616 15.08853552 46019,6917.839,95.437,540.804,538.604,0.0
52270.0,STARLINK-3804,PAYLOAD,2023-02-18 19:11:20,15.08853815,0.0001709,53.2162,74.0876,63.7775,296.3392,0.00082706,0.00012904,0.0,0 STARLINK-3804,1 52270U 22041K   23049.79953720  .00012904  00000-0  82706-3 0  9997,2 52270  53.2162  74.0876 0001709  63.7775 296.3392 15.08853815 47268,6917.838,95.437,540.885,538.521,0.0
52270.0,STARLINK-3804,PAYLOAD,2023-02-19 12:40:33,15.08867199,0.0001606,53.2163,70.815,71.4879,288.6288,0.00070388,0.0001094,0.0,0 STARLINK-3804,1 52270U 22041K   23050.52816718  .00010940  00000-0  70388-3 0  9996,2 52270  53.2163  70.8150 0001606  71.4879 288.6288 15.08867199 46161,6917.797,95.436,540.773,538.551,0.0
52270.0,STARLINK-3804,PAYLOAD,2023-02-20 06:09:48,15.08842211,0.0001944,53.2157,67.5419,88.966,271.1555,0.00069144,0.00010734,0.0,0 STARLINK-3804,1 52270U 22041K   23051.25680686  .00010734  00000-0  69144-3 0  9999,2 52270  53.2157  67.5419 0001944  88.9660 271.1555 15.08842211 47489,6917.874,95.437,541.083,538.394,0.0
52270.0,STARLINK-3804,PAYLOAD,2023-02-20 07:45:11,15.08874234,0.0001312,53.2166,67.2449,85.5257,274.5885,0.0012262,0.00019299,0.0,0 STARLINK-3804,1 52270U 22041K   23051.32304431  .00019299  00000-0  12262-2 0  9991,2 52270  53.2166  67.2449 0001312  85.5257 274.5885 15.08874234 47497,6917.776,95.435,540.548,538.733,0.0
52270.0,STARLINK-3804,PAYLOAD,2023-02-20 12:31:19,15.08891909,0.0001151,53.2166,66.3526,85.6998,274.4126,0.0017983,0.00028489,0.0,0 STARLINK-3804,1 52270U 22041K   23051.52175220  .00028489  00000-0  17983-2 0  9991,2 52270  53.2166  66.3526 0001151  85.6998 274.4126 15.08891909 46312,6917.722,95.434,540.383,538.79,0.0
52270.0,STARLINK-3804,PAYLOAD,2023-02-21 06:00:34,15.08835731,0.0001532,53.2168,63.0805,103.2313,256.885,5.9983e-05,6.67e-06,0.0,0 STARLINK-3804,1 52270U 22041K   23052.25040153  .00000667  00000-0  59983-4 0  9994,2 52270  53.2168  63.0805 0001532 103.2313 256.8850 15.08835731 47634,6917.893,95.438,540.818,538.699,0.0
52270.0,STARLINK-3804,PAYLOAD,2023-02-21 12:22:07,15.0884079,0.0001483,53.2166,61.8926,92.8788,267.2374,0.00024158,3.559e-05,0.0,0 STARLINK-3804,1 52270U 22041K   23052.51536266  .00003559  00000-0  24158-3 0  9996,2 52270  53.2166  61.8926 0001483  92.8788 267.2374 15.08840790 46464,6917.878,95.438,540.769,538.717,0.0
52270.0,STARLINK-3804,PAYLOAD,2023-02-21 17:08:16,15.08835582,0.0001363,53.216,60.9995,90.4995,269.6154,0.0001569,2.21e-05,0.0,0 STARLINK-3804,1 52270U 22041K   23052.71408541  .00002210  00000-0  15690-3 0  9996,2 52270  53.2160  60.9995 0001363  90.4995 269.6154 15.08835582 46493,6917.894,95.438,540.702,538.816,0.0
52270.0,STARLINK-3804,PAYLOAD,2023-02-22 10:37:31,15.08859883,0.0001416,53.2173,57.7289,91.5876,268.5278,0.0012285,0.00019328,0.0,0 STARLINK-3804,1 52270U 22041K   23053.44272464  .00019328  00000-0  12285-2 0  9994,2 52270  53.2173  57.7289 0001416  91.5876 268.5278 15.08859883 47818,6917.82,95.436,540.664,538.705,0.0
52270.0,STARLINK-3804,PAYLOAD,2023-02-22 16:59:04,15.08839358,0.0001703,53.2169,56.5394,87.9804,272.1383,0.00045188,6.911e-05,0.0,0 STARLINK-3804,1 52270U 22041K   23053.70768987  .00006911  00000-0  45188-3 0  9996,2 52270  53.2169  56.5394 0001703  87.9804 272.1383 15.08839358 47853,6917.882,95.438,540.925,538.569,0.0
52270.0,STARLINK-3804,PAYLOAD,2023-02-23 12:03:42,15.08845662,0.0001544,53.217,52.9718,97.1086,263.0082,0.00066398,0.00010297,0.0,0 STARLINK-3804,1 52270U 22041K   23054.50257068  .00010297  00000-0  66398-3 0  9996,2 52270  53.2170  52.9718 0001544  97.1086 263.0082 15.08845662 46762,6917.863,95.437,540.796,538.66,0.0
52270.0,STARLINK-3804,PAYLOAD,2023-02-23 16:49:51,15.08838269,0.0001702,53.218,52.0786,86.8616,273.257,0.00041671,6.35e-05,0.0,0 STARLINK-3804,1 52270U 22041K   23054.70129348  .00006350  00000-0  41671-3 0  9999,2 52270  53.2180  52.0786 0001702  86.8616 273.2570 15.08838269 46792,6917.886,95.438,540.928,538.573,0.0
52270.0,STARLINK-3804,PAYLOAD,2023-02-23 23:11:24,15.08844533,0.0001607,53.2172,50.8892,86.0531,274.0645,0.00039683,6.034e-05,0.0,0 STARLINK-3804,1 52270U 22041K   23054.96625244  .00006034  00000-0  39683-3 0  9992,2 52270  53.2172  50.8892 0001607  86.0531 274.0645 15.08844533 48042,6917.867,95.437,540.843,538.62,0.0
52270.0,STARLINK-3804,PAYLOAD,2023-02-24 07:08:19,15.08849896,0.0001544,53.2178,49.4027,85.7805,274.3364,0.00055053,8.487e-05,0.0,0 STARLINK-3804,1 52270U 22041K   23055.29745084  .00008487  00000-0  55053-3 0  9997,2 52270  53.2178  49.4027 0001544  85.7805 274.3364 15.08849896 46880,6917.85,95.437,540.783,538.647,0.0
52270.0,STARLINK-3804,PAYLOAD,2023-02-24 16:40:40,15.08807787,0.0001616,53.2175,47.6189,77.0017,283.1155,-0.00048234,-7.949e-05,0.0,0 STARLINK-3804,1 52270U 22041K   23055.69490786 -.00007949  00000-0 -48234-3 0  9994,2 52270  53.2175  47.6189 0001616  77.0017 283.1155 15.08807787 48156,6917.979,95.44,540.962,538.726,0.0
52270.0,STARLINK-3804,PAYLOAD,2023-02-25 08:34:31,15.08822651,0.000136,53.2175,44.6449,80.4962,279.6183,0.00030545,4.574e-05,0.0,0 STARLINK-3804,1 52270U 22041K   23056.35731421  .00004574  00000-0  30545-3 0  9997,2 52270  53.2175  44.6449 0001360  80.4962 279.6183 15.08822651 48254,6917.933,95.439,540.739,538.858,0.0
52270.0,STARLINK-3804,PAYLOAD,2023-02-25 16:31:27,15.08832679,0.0001351,53.2181,43.1587,80.8294,279.2851,0.00071621,0.00011127,0.0,0 STARLINK-3804,1 52270U 22041K   23056.68851689  .00011127  00000-0  71621-3 0  9994,2 52270  53.2181  43.1587 0001351  80.8294 279.2851 15.08832679 47090,6917.903,95.438,540.702,538.833,0.0
52270.0,STARLINK-3804,PAYLOAD,2023-02-26 10:00:41,15.08892479,0.0001349,53.2174,39.8879,75.6648,284.4494,0.0020631,0.00032746,0.0,0 STARLINK-3804,1 52270U 22041K   23057.41714431  .00032746  00000-0  20631-2 0  9993,2 52270  53.2174  39.8879 0001349  75.6648 284.4494 15.08892479 48412,6917.72,95.434,540.518,538.652,0.0
52270.0,STARLINK-3804,PAYLOAD,2023-02-26 16:22:13,15.08871789,0.0001483,53.2186,38.6981,82.8554,277.2607,0.0010026,0.00015718,0.0,0 STARLINK-3804,1 52270U 22041K   23057.68210469  .00015718  00000-0  10026-2 0  9991,2 52270  53.2186  38.6981 0001483  82.8554 277.2607 15.08871789 48452,6917.783,95.436,540.674,538.622,0.0
52270.0,STARLINK-3804,PAYLOAD,2023-02-27 08:16:04,15.08882828,0.0001408,53.2177,35.7247,90.5631,269.5523,0.0022107,0.00035112,0.0,0 STARLINK-3804,1 52270U 22041K   23058.34449451  .00035112  00000-0  22107-2 0  9993,2 52270  53.2177  35.7247 0001408  90.5631 269.5523 15.08882828 48552,6917.749,95.435,540.589,538.64,0.0
52270.0,STARLINK-3804,PAYLOAD,2023-02-27 22:34:31,15.08890139,0.0001047,53.2184,33.0479,94.2347,265.8765,0.0021138,0.0003356,0.0,0 STARLINK-3804,1 52270U 22041K   23058.94064491  .00033560  00000-0  21138-2 0  9994,2 52270  53.2184  33.0479 0001047  94.2347 265.8765 15.08890139 47439,6917.727,95.434,540.316,538.868,0.0
52270.0,STARLINK-3804,PAYLOAD,2023-02-28 06:31:26,15.08903763,0.0001327,53.2186,31.561,102.7267,257.3873,0.002153,0.00034203,0.0,0 STARLINK-3804,1 52270U 22041K   23059.27183321  .00034203  00000-0  21530-2 0  9996,2 52270  53.2186  31.5610 0001327 102.7267 257.3873 15.08903763 47487,6917.685,95.434,540.468,538.633,0.0
52270.0,STARLINK-3804,PAYLOAD,2023-03-01 04:46:52,15.08796358,9.69e-05,53.2176,27.3992,79.2587,280.8514,-0.00045679,-7.541e-05,0.0,0 STARLINK-3804,1 52270U 22041K   23060.19922145 -.00007541  00000-0 -45679-3 0  9992,2 52270  53.2176  27.3992 0000969  79.2587 280.8514 15.08796358 48839,6918.014,95.44,540.549,539.208,0.0
52270.0,STARLINK-3804,PAYLOAD,2023-03-01 06:22:16,15.08798319,8.6e-05,53.2182,27.1008,76.0543,284.0545,-0.00042551,-7.045e-05,0.0,0 STARLINK-3804,1 52270U 22041K   23060.26546433 -.00007045  00000-0 -42551-3 0  9997,2 52270  53.2182  27.1008 0000860  76.0543 284.0545 15.08798319 47635,6918.008,95.44,540.468,539.278,0.0
